{"name":"400","date":"2000-Jan-01 12:00:00.0000","eccentricity":0.1127415695258164,"periapsis":415090448.2802795,"inclination":10.52865730994192,"longitudeOfAscendingNode":327.3442868274769,"argumentOfPeriapsis":240.5096354381908,"timeOfPeriapsis":2451921.556968596,"meanMotion":10.52865730994192,"meanAnomaly":292.8905046317927,"trueAnomaly":280.4004233063524,"semiMajorAxis":292.8905046317927,"apoapsis":520579327.3417789,"siderealOrbitPeriod":174527134.900029}
